{
  "type": "FeatureCollection",
  "features": [
    {
      "type": "Feature",
      "properties": {
        "norad_id": 41860,
        "name": "GSAT0212 (GALILEO 16)",
        "group": "galileo",
        "lat": -12.286613280038189,
        "lon": 97.6420068182319,
        "alt_km": 23219.36461297686,
        "timestamp": "2025-12-10T20:49:52.816593+00:00",
        "meta_object_name": "GSAT0212 (GALILEO 16)",
        "meta_object_id": "2016-069B",
        "meta_epoch": "2025-12-09T03:10:58.927872",
        "meta_mean_motion": 1.70474546,
        "meta_eccentricity": 0.00021877,
        "meta_inclination": 55.3778,
        "meta_ra_of_asc_node": 106.3455,
        "meta_arg_of_pericenter": 30.0277,
        "meta_mean_anomaly": 329.9496,
        "meta_ephemeris_type": 0,
        "meta_classification_type": "U",
        "meta_norad_cat_id": 41860,
        "meta_element_set_no": 999,
        "meta_rev_at_epoch": 5641,
        "meta_bstar": 0,
        "meta_mean_motion_dot": 1e-07,
        "meta_mean_motion_ddot": 0,
        "tle_line1": "1 41860U 16069B   25343.13262648  .00000010  00000+0  00000+0 0  9999",
        "tle_line2": "2 41860  55.3778 106.3455 0002187  30.0277 329.9496  1.70474546 56413"
      },
      "geometry": {
        "type": "Point",
        "coordinates": [
          97.6420068182319,
          -12.286613280038189
        ]
      }
    },
    {
      "type": "Feature",
      "properties": {
        "norad_id": 41861,
        "name": "GSAT0213 (GALILEO 17)",
        "group": "galileo",
        "lat": 45.78711860098159,
        "lon": -118.88763376783133,
        "alt_km": 23223.092153648355,
        "timestamp": "2025-12-10T20:49:52.816604+00:00",
        "meta_object_name": "GSAT0213 (GALILEO 17)",
        "meta_object_id": "2016-069C",
        "meta_epoch": "2025-12-08T21:55:35.814144",
        "meta_mean_motion": 1.70474823,
        "meta_eccentricity": 0.00022753,
        "meta_inclination": 55.38,
        "meta_ra_of_asc_node": 106.3592,
        "meta_arg_of_pericenter": 283.5203,
        "meta_mean_anomaly": 76.4183,
        "meta_ephemeris_type": 0,
        "meta_classification_type": "U",
        "meta_norad_cat_id": 41861,
        "meta_element_set_no": 999,
        "meta_rev_at_epoch": 5627,
        "meta_bstar": 0,
        "meta_mean_motion_dot": 1e-07,
        "meta_mean_motion_ddot": 0,
        "tle_line1": "1 41861U 16069C   25342.91360896  .00000010  00000+0  00000+0 0  9999",
        "tle_line2": "2 41861  55.3800 106.3592 0002275 283.5203  76.4183  1.70474823 56273"
      },
      "geometry": {
        "type": "Point",
        "coordinates": [
          -118.88763376783133,
          45.78711860098159
        ]
      }
    },
    {
      "type": "Feature",
      "properties": {
        "norad_id": 41862,
        "name": "GSAT0214 (GALILEO 18)",
        "group": "galileo",
        "lat": 24.171080460558027,
        "lon": 124.3323212285342,
        "alt_km": 23219.817878564856,
        "timestamp": "2025-12-10T20:49:52.816615+00:00",
        "meta_object_name": "GSAT0214 (GALILEO 18)",
        "meta_object_id": "2016-069D",
        "meta_epoch": "2025-12-07T21:16:28.160256",
        "meta_mean_motion": 1.70474622,
        "meta_eccentricity": 0.00012492,
        "meta_inclination": 55.3777,
        "meta_ra_of_asc_node": 106.3805,
        "meta_arg_of_pericenter": 290.0949,
        "meta_mean_anomaly": 69.8506,
        "meta_ephemeris_type": 0,
        "meta_classification_type": "U",
        "meta_norad_cat_id": 41862,
        "meta_element_set_no": 999,
        "meta_rev_at_epoch": 5638,
        "meta_bstar": 0,
        "meta_mean_motion_dot": 8e-08,
        "meta_mean_motion_ddot": 0,
        "tle_line1": "1 41862U 16069D   25341.88643704  .00000008  00000+0  00000+0 0  9994",
        "tle_line2": "2 41862  55.3777 106.3805 0001249 290.0949  69.8506  1.70474622 56388"
      },
      "geometry": {
        "type": "Point",
        "coordinates": [
          124.3323212285342,
          24.171080460558027
        ]
      }
    },
    {
      "type": "Feature",
      "properties": {
        "norad_id": 43055,
        "name": "GSAT0215 (GALILEO 19)",
        "group": "galileo",
        "lat": 55.125284635735454,
        "lon": -44.98030170457779,
        "alt_km": 23216.815355773066,
        "timestamp": "2025-12-10T20:49:52.816626+00:00",
        "meta_object_name": "GSAT0215 (GALILEO 19)",
        "meta_object_id": "2017-079A",
        "meta_epoch": "2025-12-09T13:11:41.418816",
        "meta_mean_motion": 1.70473866,
        "meta_eccentricity": 0.00012854,
        "meta_inclination": 55.1311,
        "meta_ra_of_asc_node": 226.7257,
        "meta_arg_of_pericenter": 343.8684,
        "meta_mean_anomaly": 16.2123,
        "meta_ephemeris_type": 0,
        "meta_classification_type": "U",
        "meta_norad_cat_id": 43055,
        "meta_element_set_no": 999,
        "meta_rev_at_epoch": 4975,
        "meta_bstar": 0,
        "meta_mean_motion_dot": 1.1e-07,
        "meta_mean_motion_ddot": 0,
        "tle_line1": "1 43055U 17079A   25343.54978494  .00000011  00000+0  00000+0 0  9998",
        "tle_line2": "2 43055  55.1311 226.7257 0001285 343.8684  16.2123  1.70473866 49750"
      },
      "geometry": {
        "type": "Point",
        "coordinates": [
          -44.98030170457779,
          55.125284635735454
        ]
      }
    },
    {
      "type": "Feature",
      "properties": {
        "norad_id": 43056,
        "name": "GSAT0216 (GALILEO 20)",
        "group": "galileo",
        "lat": -55.13660720463292,
        "lon": 137.0884654908319,
        "alt_km": 23223.152969244336,
        "timestamp": "2025-12-10T20:49:52.816636+00:00",
        "meta_object_name": "GSAT0216 (GALILEO 20)",
        "meta_object_id": "2017-079B",
        "meta_epoch": "2025-12-08T01:57:06.766848",
        "meta_mean_motion": 1.70473892,
        "meta_eccentricity": 0.00025149,
        "meta_inclination": 55.132,
        "meta_ra_of_asc_node": 226.7661,
        "meta_arg_of_pericenter": 318.3772,
        "meta_mean_anomaly": 41.6956,
        "meta_ephemeris_type": 0,
        "meta_classification_type": "U",
        "meta_norad_cat_id": 43056,
        "meta_element_set_no": 999,
        "meta_rev_at_epoch": 4974,
        "meta_bstar": 0,
        "meta_mean_motion_dot": 1.9e-07,
        "meta_mean_motion_ddot": 0,
        "tle_line1": "1 43056U 17079B   25342.08132832  .00000019  00000+0  00000+0 0  9993",
        "tle_line2": "2 43056  55.1320 226.7661 0002514 318.3772  41.6956  1.70473892 49745"
      },
      "geometry": {
        "type": "Point",
        "coordinates": [
          137.0884654908319,
          -55.13660720463292
        ]
      }
    },
    {
      "type": "Feature",
      "properties": {
        "norad_id": 43057,
        "name": "GSAT0217 (GALILEO 21)",
        "group": "galileo",
        "lat": 35.58288115438824,
        "lon": 16.796747994169976,
        "alt_km": 23225.086708991403,
        "timestamp": "2025-12-10T20:49:52.816647+00:00",
        "meta_object_name": "GSAT0217 (GALILEO 21)",
        "meta_object_id": "2017-079C",
        "meta_epoch": "2025-12-10T01:28:57.302112",
        "meta_mean_motion": 1.704739,
        "meta_eccentricity": 0.00027944,
        "meta_inclination": 55.1293,
        "meta_ra_of_asc_node": 226.7095,
        "meta_arg_of_pericenter": 343.7549,
        "meta_mean_anomaly": 16.3188,
        "meta_ephemeris_type": 0,
        "meta_classification_type": "U",
        "meta_norad_cat_id": 43057,
        "meta_element_set_no": 999,
        "meta_rev_at_epoch": 4976,
        "meta_bstar": 0,
        "meta_mean_motion_dot": 9e-08,
        "meta_mean_motion_ddot": 0,
        "tle_line1": "1 43057U 17079C   25344.06177433  .00000009  00000+0  00000+0 0  9999",
        "tle_line2": "2 43057  55.1293 226.7095 0002794 343.7549  16.3188  1.70473900 49768"
      },
      "geometry": {
        "type": "Point",
        "coordinates": [
          16.796747994169976,
          35.58288115438824
        ]
      }
    },
    {
      "type": "Feature",
      "properties": {
        "norad_id": 43058,
        "name": "GSAT0218 (GALILEO 22)",
        "group": "galileo",
        "lat": -0.21543271444088097,
        "lon": -133.45666617899033,
        "alt_km": 23217.515502658858,
        "timestamp": "2025-12-10T20:49:52.816659+00:00",
        "meta_object_name": "GSAT0218 (GALILEO 22)",
        "meta_object_id": "2017-079D",
        "meta_epoch": "2025-12-09T02:36:28.325952",
        "meta_mean_motion": 1.70473942,
        "meta_eccentricity": 0.00028125,
        "meta_inclination": 55.1298,
        "meta_ra_of_asc_node": 226.7335,
        "meta_arg_of_pericenter": 306.3632,
        "meta_mean_anomaly": 53.6978,
        "meta_ephemeris_type": 0,
        "meta_classification_type": "U",
        "meta_norad_cat_id": 43058,
        "meta_element_set_no": 999,
        "meta_rev_at_epoch": 4977,
        "meta_bstar": 0,
        "meta_mean_motion_dot": 1.2e-07,
        "meta_mean_motion_ddot": 0,
        "tle_line1": "1 43058U 17079D   25343.10866118  .00000012  00000+0  00000+0 0  9993",
        "tle_line2": "2 43058  55.1298 226.7335 0002812 306.3632  53.6978  1.70473942 49778"
      },
      "geometry": {
        "type": "Point",
        "coordinates": [
          -133.45666617899033,
          -0.21543271444088097
        ]
      }
    }
  ]
}